PLEIADES NEO 3          
1 48268U 21034A   26195.19859461 -.00000414  00000+0 -46054-4 0  9997
2 48268  97.8945 269.5765 0001380  91.4673 268.6698 14.81666986281656
PLEIADES NEO 4          
1 49070U 21073E   26195.16482720  .00000844  00000+0  11389-3 0  9996
2 49070  97.8944 269.5390 0001304  94.9909 265.1452 14.81671582265365
